[{"OBJECT_NAME":"STARLINK-32924","OBJECT_ID":"2025-037R","EPOCH":"2026-03-09T22:45:33.798240","MEAN_MOTION":14.98337023,"ECCENTRICITY":0.00028121,"INCLINATION":70.0035,"RA_OF_ASC_NODE":353.6927,"ARG_OF_PERICENTER":257.7361,"MEAN_ANOMALY":102.3483,"EPHEMERIS_TYPE":0,"CLASSIFICATION_TYPE":"U","NORAD_CAT_ID":63092,"ELEMENT_SET_NO":999,"REV_AT_EPOCH":5864,"BSTAR":0.0006750261,"MEAN_MOTION_DOT":7.972e-5,"MEAN_MOTION_DDOT":0},{"OBJECT_NAME":"CZ-2C DEB","OBJECT_ID":"2013-035D","EPOCH":"2026-03-09T23:34:49.287360","MEAN_MOTION":14.88810695,"ECCENTRICITY":0.00555667,"INCLINATION":97.8149,"RA_OF_ASC_NODE":69.2801,"ARG_OF_PERICENTER":125.3803,"MEAN_ANOMALY":235.2624,"EPHEMERIS_TYPE":0,"CLASSIFICATION_TYPE":"U","NORAD_CAT_ID":39205,"ELEMENT_SET_NO":999,"REV_AT_EPOCH":67351,"BSTAR":0.0012724881,"MEAN_MOTION_DOT":0.0001222,"MEAN_MOTION_DDOT":0}]
